[Satellite]
VERSION=1.1
NAME=GPS BIIF-2  (PRN 01)
NICKNAME=GPS BIIF-2  (PRN 01)
TLE1=1 37753U 11036A   18020.72945025 -.00000020  00000-0  00000-0 0  9994
TLE2=2 37753  55.5700  92.1016 0071206  33.9030  69.7873  2.00563476 47714
